STARLINK-36365          
1 67666U 26022U   26041.91667824 -.01616687  75127-3 -43609-2 0  9995
2 67666  97.2802  74.5306 0001316  80.3942 199.7014 15.94422326  2598
STARLINK-36622          
1 67667U 26022V   26041.91667824 -.01612449  74942-3 -42963-2 0  9994
2 67667  97.2800  74.5319 0001355  87.7455 196.4329 15.94654528  2598
STARLINK-36625          
1 67668U 26022W   26041.91667824 -.01600923  74147-3 -42081-2 0  9997
2 67668  97.2796  74.5340 0001327  86.4487 202.1444 15.94908634  2590
STARLINK-36639          
1 67669U 26022X   26041.91667824 -.01593609  73705-3 -41355-2 0  9992
2 67669  97.2799  74.5360 0001300  78.6841 214.1286 15.95149243  2595
STARLINK-36596          
1 67670U 26022Y   26041.91667824 -.01593011  73809-3 -40901-2 0  9992
2 67670  97.2793  74.5370 0001279  86.4332 209.8966 15.95349371  2599
STARLINK-36297          
1 67671U 26022Z   26041.91667824 -.01581986  73111-3 -39922-2 0  9998
2 67671  97.2790  74.5396 0001328  80.2993 221.9388 15.95671109  2595
STARLINK-36616          
1 67672U 26022AA  26041.91667824 -.01589420  73635-3 -40432-2 0  9999
2 67672  97.2792  74.5385 0001327  75.3898 224.0830 15.95522461  2596
COSMOS 2600             
1 67674U 26023A   26041.90911924  .00071491  00000+0  35606-3 0  9995
2 67674  96.6492 118.3930 0002077  67.9685 292.1806 15.81706768   816
2026-023B               
1 67675U 26023B   26037.83165961  .00002946  00000+0  13032-3 0  9993
2 67675  96.6397 114.3547 0017219 239.3232 120.6310 15.22205300   162
2026-023C               
1 67676U 26023C   26037.83163995  .00006231  00000+0  27219-3 0  9992
2 67676  96.6444 114.3671 0018177 231.2308 128.7307 15.22258115   159
2026-023D               
1 67677U 26023D   26041.97311080  .00011082  00000+0  48169-3 0  9990
2 67677  96.6475 118.0126 0018609 221.4026 138.5803 15.22259883   780
2026-023E               
1 67678U 26023E   26037.83165436  .00006205  00000+0  27128-3 0  9996
2 67678  96.6374 114.3623 0018163 237.2347 122.7142 15.22227869   157
