CCSDS_OMM_VERS = 2.0
CREATION_DATE  = 
ORIGINATOR     = 

OBJECT_NAME    = STARLINK-36365
OBJECT_ID      = 2026-022U
CENTER_NAME    = EARTH
REF_FRAME      = TEME
TIME_SYSTEM    = UTC
MEAN_ELEMENT_THEORY = SGP/SGP4

EPOCH          = 2026-02-10T22:00:00.999936
MEAN_MOTION    = 15.94422326
ECCENTRICITY   = .00013167
INCLINATION    = 97.2802
RA_OF_ASC_NODE = 74.5306
ARG_OF_PERICENTER = 80.3942
MEAN_ANOMALY   = 199.7014

EPHEMERIS_TYPE = 0
CLASSIFICATION_TYPE = U
NORAD_CAT_ID   = 67666
ELEMENT_SET_NO = 999
REV_AT_EPOCH   = 259
BSTAR          = -.43608829E-2
MEAN_MOTION_DOT = -.1616687E-1
MEAN_MOTION_DDOT = .75126969E-3

CCSDS_OMM_VERS = 2.0
CREATION_DATE  = 
ORIGINATOR     = 

OBJECT_NAME    = STARLINK-36622
OBJECT_ID      = 2026-022V
CENTER_NAME    = EARTH
REF_FRAME      = TEME
TIME_SYSTEM    = UTC
MEAN_ELEMENT_THEORY = SGP/SGP4

EPOCH          = 2026-02-10T22:00:00.999936
MEAN_MOTION    = 15.94654528
ECCENTRICITY   = .00013553
INCLINATION    = 97.2800
RA_OF_ASC_NODE = 74.5319
ARG_OF_PERICENTER = 87.7455
MEAN_ANOMALY   = 196.4329

EPHEMERIS_TYPE = 0
CLASSIFICATION_TYPE = U
NORAD_CAT_ID   = 67667
ELEMENT_SET_NO = 999
REV_AT_EPOCH   = 259
BSTAR          = -.42962519E-2
MEAN_MOTION_DOT = -.1612449E-1
MEAN_MOTION_DDOT = .74942395E-3

CCSDS_OMM_VERS = 2.0
CREATION_DATE  = 
ORIGINATOR     = 

OBJECT_NAME    = STARLINK-36625
OBJECT_ID      = 2026-022W
CENTER_NAME    = EARTH
REF_FRAME      = TEME
TIME_SYSTEM    = UTC
MEAN_ELEMENT_THEORY = SGP/SGP4

EPOCH          = 2026-02-10T22:00:00.999936
MEAN_MOTION    = 15.94908634
ECCENTRICITY   = .0001327
INCLINATION    = 97.2796
RA_OF_ASC_NODE = 74.5340
ARG_OF_PERICENTER = 86.4487
MEAN_ANOMALY   = 202.1444

EPHEMERIS_TYPE = 0
CLASSIFICATION_TYPE = U
NORAD_CAT_ID   = 67668
ELEMENT_SET_NO = 999
REV_AT_EPOCH   = 259
BSTAR          = -.42081446E-2
MEAN_MOTION_DOT = -.1600923E-1
MEAN_MOTION_DDOT = .74147147E-3

CCSDS_OMM_VERS = 2.0
CREATION_DATE  = 
ORIGINATOR     = 

OBJECT_NAME    = STARLINK-36639
OBJECT_ID      = 2026-022X
CENTER_NAME    = EARTH
REF_FRAME      = TEME
TIME_SYSTEM    = UTC
MEAN_ELEMENT_THEORY = SGP/SGP4

EPOCH          = 2026-02-10T22:00:00.999936
MEAN_MOTION    = 15.95149243
ECCENTRICITY   = .00013003
INCLINATION    = 97.2799
RA_OF_ASC_NODE = 74.5360
ARG_OF_PERICENTER = 78.6841
MEAN_ANOMALY   = 214.1286

EPHEMERIS_TYPE = 0
CLASSIFICATION_TYPE = U
NORAD_CAT_ID   = 67669
ELEMENT_SET_NO = 999
REV_AT_EPOCH   = 259
BSTAR          = -.41354806E-2
MEAN_MOTION_DOT = -.1593609E-1
MEAN_MOTION_DDOT = .73705222E-3

CCSDS_OMM_VERS = 2.0
CREATION_DATE  = 
ORIGINATOR     = 

OBJECT_NAME    = STARLINK-36596
OBJECT_ID      = 2026-022Y
CENTER_NAME    = EARTH
REF_FRAME      = TEME
TIME_SYSTEM    = UTC
MEAN_ELEMENT_THEORY = SGP/SGP4

EPOCH          = 2026-02-10T22:00:00.999936
MEAN_MOTION    = 15.95349371
ECCENTRICITY   = .00012796
INCLINATION    = 97.2793
RA_OF_ASC_NODE = 74.5370
ARG_OF_PERICENTER = 86.4332
MEAN_ANOMALY   = 209.8966

EPHEMERIS_TYPE = 0
CLASSIFICATION_TYPE = U
NORAD_CAT_ID   = 67670
ELEMENT_SET_NO = 999
REV_AT_EPOCH   = 259
BSTAR          = -.40900692E-2
MEAN_MOTION_DOT = -.1593011E-1
MEAN_MOTION_DDOT = .73808725E-3

CCSDS_OMM_VERS = 2.0
CREATION_DATE  = 
ORIGINATOR     = 

OBJECT_NAME    = STARLINK-36297
OBJECT_ID      = 2026-022Z
CENTER_NAME    = EARTH
REF_FRAME      = TEME
TIME_SYSTEM    = UTC
MEAN_ELEMENT_THEORY = SGP/SGP4

EPOCH          = 2026-02-10T22:00:00.999936
MEAN_MOTION    = 15.95671109
ECCENTRICITY   = .00013282
INCLINATION    = 97.2790
RA_OF_ASC_NODE = 74.5396
ARG_OF_PERICENTER = 80.2993
MEAN_ANOMALY   = 221.9388

EPHEMERIS_TYPE = 0
CLASSIFICATION_TYPE = U
NORAD_CAT_ID   = 67671
ELEMENT_SET_NO = 999
REV_AT_EPOCH   = 259
BSTAR          = -.39921505E-2
MEAN_MOTION_DOT = -.1581986E-1
MEAN_MOTION_DDOT = .73110908E-3

CCSDS_OMM_VERS = 2.0
CREATION_DATE  = 
ORIGINATOR     = 

OBJECT_NAME    = STARLINK-36616
OBJECT_ID      = 2026-022AA
CENTER_NAME    = EARTH
REF_FRAME      = TEME
TIME_SYSTEM    = UTC
MEAN_ELEMENT_THEORY = SGP/SGP4

EPOCH          = 2026-02-10T22:00:00.999936
MEAN_MOTION    = 15.95522461
ECCENTRICITY   = .00013278
INCLINATION    = 97.2792
RA_OF_ASC_NODE = 74.5385
ARG_OF_PERICENTER = 75.3898
MEAN_ANOMALY   = 224.0830

EPHEMERIS_TYPE = 0
CLASSIFICATION_TYPE = U
NORAD_CAT_ID   = 67672
ELEMENT_SET_NO = 999
REV_AT_EPOCH   = 259
BSTAR          = -.40431612E-2
MEAN_MOTION_DOT = -.158942E-1
MEAN_MOTION_DDOT = .73634508E-3

CCSDS_OMM_VERS = 2.0
CREATION_DATE  = 
ORIGINATOR     = 

OBJECT_NAME    = COSMOS 2600
OBJECT_ID      = 2026-023A
CENTER_NAME    = EARTH
REF_FRAME      = TEME
TIME_SYSTEM    = UTC
MEAN_ELEMENT_THEORY = SGP/SGP4

EPOCH          = 2026-02-10T21:49:07.902336
MEAN_MOTION    = 15.81706768
ECCENTRICITY   = .00020773
INCLINATION    = 96.6492
RA_OF_ASC_NODE = 118.3930
ARG_OF_PERICENTER = 67.9685
MEAN_ANOMALY   = 292.1806

EPHEMERIS_TYPE = 0
CLASSIFICATION_TYPE = U
NORAD_CAT_ID   = 67674
ELEMENT_SET_NO = 999
REV_AT_EPOCH   = 81
BSTAR          = .35605509E-3
MEAN_MOTION_DOT = .71491E-3
MEAN_MOTION_DDOT = 0

CCSDS_OMM_VERS = 2.0
CREATION_DATE  = 
ORIGINATOR     = 

OBJECT_NAME    = 2026-023B
OBJECT_ID      = 2026-023B
CENTER_NAME    = EARTH
REF_FRAME      = TEME
TIME_SYSTEM    = UTC
MEAN_ELEMENT_THEORY = SGP/SGP4

EPOCH          = 2026-02-06T19:57:35.390304
MEAN_MOTION    = 15.22205300
ECCENTRICITY   = .00172194
INCLINATION    = 96.6397
RA_OF_ASC_NODE = 114.3547
ARG_OF_PERICENTER = 239.3232
MEAN_ANOMALY   = 120.6310

EPHEMERIS_TYPE = 0
CLASSIFICATION_TYPE = U
NORAD_CAT_ID   = 67675
ELEMENT_SET_NO = 999
REV_AT_EPOCH   = 16
BSTAR          = .13032448E-3
MEAN_MOTION_DOT = .2946E-4
MEAN_MOTION_DDOT = 0

CCSDS_OMM_VERS = 2.0
CREATION_DATE  = 
ORIGINATOR     = 

OBJECT_NAME    = 2026-023C
OBJECT_ID      = 2026-023C
CENTER_NAME    = EARTH
REF_FRAME      = TEME
TIME_SYSTEM    = UTC
MEAN_ELEMENT_THEORY = SGP/SGP4

EPOCH          = 2026-02-06T19:57:33.691680
MEAN_MOTION    = 15.22258115
ECCENTRICITY   = .0018177
INCLINATION    = 96.6444
RA_OF_ASC_NODE = 114.3671
ARG_OF_PERICENTER = 231.2308
MEAN_ANOMALY   = 128.7307

EPHEMERIS_TYPE = 0
CLASSIFICATION_TYPE = U
NORAD_CAT_ID   = 67676
ELEMENT_SET_NO = 999
REV_AT_EPOCH   = 15
BSTAR          = .27219E-3
MEAN_MOTION_DOT = .6231E-4
MEAN_MOTION_DDOT = 0

CCSDS_OMM_VERS = 2.0
CREATION_DATE  = 
ORIGINATOR     = 

OBJECT_NAME    = 2026-023D
OBJECT_ID      = 2026-023D
CENTER_NAME    = EARTH
REF_FRAME      = TEME
TIME_SYSTEM    = UTC
MEAN_ELEMENT_THEORY = SGP/SGP4

EPOCH          = 2026-02-10T23:21:16.773120
MEAN_MOTION    = 15.22259883
ECCENTRICITY   = .00186095
INCLINATION    = 96.6475
RA_OF_ASC_NODE = 118.0126
ARG_OF_PERICENTER = 221.4026
MEAN_ANOMALY   = 138.5803

EPHEMERIS_TYPE = 0
CLASSIFICATION_TYPE = U
NORAD_CAT_ID   = 67677
ELEMENT_SET_NO = 999
REV_AT_EPOCH   = 78
BSTAR          = .48168636E-3
MEAN_MOTION_DOT = .11082E-3
MEAN_MOTION_DDOT = 0

CCSDS_OMM_VERS = 2.0
CREATION_DATE  = 
ORIGINATOR     = 

OBJECT_NAME    = 2026-023E
OBJECT_ID      = 2026-023E
CENTER_NAME    = EARTH
REF_FRAME      = TEME
TIME_SYSTEM    = UTC
MEAN_ELEMENT_THEORY = SGP/SGP4

EPOCH          = 2026-02-06T19:57:34.936704
MEAN_MOTION    = 15.22227869
ECCENTRICITY   = .00181635
INCLINATION    = 96.6374
RA_OF_ASC_NODE = 114.3623
ARG_OF_PERICENTER = 237.2347
MEAN_ANOMALY   = 122.7142

EPHEMERIS_TYPE = 0
CLASSIFICATION_TYPE = U
NORAD_CAT_ID   = 67678
ELEMENT_SET_NO = 999
REV_AT_EPOCH   = 15
BSTAR          = .27128471E-3
MEAN_MOTION_DOT = .6205E-4
MEAN_MOTION_DDOT = 0

